     3.00           N                   E                   RINEX VERSION / TYPE
BRD_USR             ESA                 20190108 002940  UTCPGM / RUN BY / DATE
 GAL   5.0250E+01  4.2969E-02 -4.6387E-03  0.0000E+00       IONOSPHERIC CORR
GAUT  0.0000000000E+00 0.000000000E+00  86400 2035 GSTB   0 TIME SYSTEM CORR
GPGA -3.7834979594E-10 1.065814104E-14 172800 2035 GSTB   0 TIME SYSTEM CORR
                                                            END OF HEADER
E27 2019 01 07 22 10 00 5.542893777601E-04-7.744915819785E-12 0.000000000000E+00
     2.100000000000E+01 1.133750000000E+02 2.381170613885E-09 1.339992301727E+00
     5.232170224190E-06 2.084888983518E-04 1.235492527485E-05 5.440635381699E+03
     1.662000000000E+05-9.313225746155E-09-2.949680608483E+00-5.960464477539E-08
     9.898531437680E-01 8.765625000000E+01-9.056190610004E-01-5.029852370683E-09
    -4.050168705784E-10 2.580000000000E+02 2.035000000000E+03 0.000000000000E+00
     3.120000000000E+00 0.000000000000E+00-2.793967723846E-09 0.000000000000E+00
     1.687500000000E+05 0.000000000000E+00 0.000000000000E+00 0.000000000000E+00
E09 2019 01 07 22 40 00 6.564960640389E-03-1.131184035330E-11 0.000000000000E+00
     2.400000000000E+01 2.912500000000E+01 3.274422107110E-09-5.106383010835E-01
     1.501291990280E-06 2.459795214236E-04 7.197260856628E-06 5.440614618301E+03
     1.680000000000E+05-1.490116119385E-08 1.234995185044E+00-6.146728992462E-08
     9.582898274749E-01 1.827500000000E+02 9.815095265543E-02-5.547373927534E-09
     6.682421206809E-10 5.210000000000E+02 2.035000000000E+03 0.000000000000E+00
     3.120000000000E+00 0.000000000000E+00-3.259629011154E-09-3.725290298462E-09
     1.688350000000E+05 0.000000000000E+00 0.000000000000E+00 0.000000000000E+00
E09 2019 01 07 22 40 00 6.564960698597E-03-1.131184035330E-11 0.000000000000E+00
     2.400000000000E+01 2.912500000000E+01 3.274422107110E-09-5.106383010835E-01
     1.501291990280E-06 2.459795214236E-04 7.197260856628E-06 5.440614618301E+03
     1.680000000000E+05-1.490116119385E-08 1.234995185044E+00-6.146728992462E-08
     9.582898274749E-01 1.827500000000E+02 9.815095265543E-02-5.547373927534E-09
     6.682421206809E-10 2.580000000000E+02 2.035000000000E+03 0.000000000000E+00
     3.120000000000E+00 0.000000000000E+00-3.259629011154E-09 0.000000000000E+00
     1.688500000000E+05 0.000000000000E+00 0.000000000000E+00 0.000000000000E+00
E19 2019 01 07 22 40 00-9.299197699875E-06 2.700062395888E-13 0.000000000000E+00
     2.400000000000E+01 2.318750000000E+01 3.354068281835E-09-1.092359145029E+00
     9.741634130478E-07 1.355191925541E-04 7.428228855133E-06 5.440611610413E+03
     1.680000000000E+05 5.029141902924E-08 1.240352497843E+00-7.450580596924E-09
     9.580451017611E-01 1.789375000000E+02 2.330039952157E+00-5.541302246052E-09
     6.593131773260E-10 5.210000000000E+02 2.035000000000E+03 0.000000000000E+00
     3.120000000000E+00 0.000000000000E+00-8.614733815193E-09-9.080395102501E-09
     1.688950000000E+05 0.000000000000E+00 0.000000000000E+00 0.000000000000E+00
E36 2019 01 07 22 40 00 7.623072015122E-04-4.419575816428E-12 0.000000000000E+00
     2.400000000000E+01-1.115937500000E+02 2.878334179886E-09 2.521054921268E+00
    -5.224719643593E-06 3.269212320447E-04 3.557652235031E-07 5.440602941513E+03
     1.680000000000E+05 2.607703208923E-08-8.668649171805E-01-3.725290298462E-09
     9.851689254287E-01 3.432500000000E+02-1.618261410466E+00-5.780955085698E-09
    -2.739399821284E-10 5.210000000000E+02 2.035000000000E+03 0.000000000000E+00
     3.120000000000E+00 4.550000000000E+02 9.313225746155E-10 1.164153218269E-09
     1.688950000000E+05 0.000000000000E+00 0.000000000000E+00 0.000000000000E+00
E19 2019 01 07 22 40 00-9.299197699875E-06 2.415845301584E-13 0.000000000000E+00
     2.400000000000E+01 2.318750000000E+01 3.354068281835E-09-1.092359145029E+00
     9.741634130478E-07 1.355191925541E-04 7.428228855133E-06 5.440611610413E+03
     1.680000000000E+05 5.029141902924E-08 1.240352497843E+00-7.450580596924E-09
     9.580451017611E-01 1.789375000000E+02 2.330039952157E+00-5.541302246052E-09
     6.593131773260E-10 2.580000000000E+02 2.035000000000E+03 0.000000000000E+00
     3.120000000000E+00 0.000000000000E+00-8.614733815193E-09 0.000000000000E+00
     1.689000000000E+05 0.000000000000E+00 0.000000000000E+00 0.000000000000E+00
E21 2019 01 07 22 40 00-5.133168306202E-04-1.932676241267E-12 0.000000000000E+00
     2.400000000000E+01 1.035312500000E+02 2.431529854407E-09 1.761896739100E-01
     4.794448614120E-06 4.771898966283E-05 1.271627843380E-05 5.440633863449E+03
     1.680000000000E+05-7.450580596924E-09-2.949706211012E+00-2.607703208923E-08
     9.898798990768E-01 8.184375000000E+01-3.055058799233E-01-5.014494588113E-09
    -3.800158291846E-10 2.580000000000E+02 2.035000000000E+03 0.000000000000E+00
     3.120000000000E+00 0.000000000000E+00-2.561137080193E-09 0.000000000000E+00
     1.689000000000E+05 0.000000000000E+00 0.000000000000E+00 0.000000000000E+00
E36 2019 01 07 22 40 00 7.623064448126E-04-4.419575816428E-12 0.000000000000E+00
     2.400000000000E+01-1.115937500000E+02 2.878334179886E-09 2.521054921268E+00
    -5.224719643593E-06 3.269212320447E-04 3.557652235031E-07 5.440602941513E+03
     1.680000000000E+05 2.607703208923E-08-8.668649171805E-01-3.725290298462E-09
     9.851689254287E-01 3.432500000000E+02-1.618261410466E+00-5.780955085698E-09
    -2.739399821284E-10 2.580000000000E+02 2.035000000000E+03 0.000000000000E+00
     3.120000000000E+00 5.600000000000E+01 9.313225746155E-10 0.000000000000E+00
     1.689000000000E+05 0.000000000000E+00 0.000000000000E+00 0.000000000000E+00
E04 2019 01 07 22 40 00-1.953872269951E-04-7.872813512222E-12 0.000000000000E+00
     2.400000000000E+01 2.243750000000E+01 3.420142462662E-09-1.664698153429E+00
     1.108273863792E-06 7.459032349288E-05 7.346272468567E-06 5.440610683441E+03
     1.680000000000E+05 2.235174179077E-08 1.243681019758E+00-2.421438694000E-08
     9.523160380712E-01 1.790312500000E+02 2.041748439932E+00-5.563803183307E-09
     6.382408710084E-10 5.210000000000E+02 2.035000000000E+03 0.000000000000E+00
     3.120000000000E+00 0.000000000000E+00-8.149072527885E-09-9.080395102501E-09
     1.689250000000E+05 0.000000000000E+00 0.000000000000E+00 0.000000000000E+00
E04 2019 01 07 22 40 00-1.953869359568E-04-7.872813512222E-12 0.000000000000E+00
     2.400000000000E+01 2.243750000000E+01 3.420142462662E-09-1.664698153429E+00
     1.108273863792E-06 7.459032349288E-05 7.346272468567E-06 5.440610683441E+03
     1.680000000000E+05 2.235174179077E-08 1.243681019758E+00-2.421438694000E-08
     9.523160380712E-01 1.790312500000E+02 2.041748439932E+00-5.563803183307E-09
     6.382408710084E-10 2.580000000000E+02 2.035000000000E+03 0.000000000000E+00
     3.120000000000E+00 0.000000000000E+00-8.149072527885E-09 0.000000000000E+00
     1.689500000000E+05 0.000000000000E+00 0.000000000000E+00 0.000000000000E+00
E04 2019 01 07 22 40 00-1.953869359568E-04-7.872813512222E-12 0.000000000000E+00
     2.400000000000E+01 2.243750000000E+01 3.420142462662E-09-1.664698153429E+00
     1.108273863792E-06 7.459032349288E-05 7.346272468567E-06 5.440610683441E+03
     1.680000000000E+05 2.235174179077E-08 1.243681019758E+00-2.421438694000E-08
     9.523160380712E-01 1.790312500000E+02 2.041748439932E+00-5.563803183307E-09
     6.382408710084E-10 2.580000000000E+02 2.035000000000E+03 0.000000000000E+00
     3.120000000000E+00 0.000000000000E+00-8.149072527885E-09 0.000000000000E+00
     1.690000000000E+05 0.000000000000E+00 0.000000000000E+00 0.000000000000E+00
E04 2019 01 07 22 40 00-1.953872269951E-04-7.872813512222E-12 0.000000000000E+00
     2.400000000000E+01 2.243750000000E+01 3.420142462662E-09-1.664698153429E+00
     1.108273863792E-06 7.459032349288E-05 7.346272468567E-06 5.440610683441E+03
     1.680000000000E+05 2.235174179077E-08 1.243681019758E+00-2.421438694000E-08
     9.523160380712E-01 1.790312500000E+02 2.041748439932E+00-5.563803183307E-09
     6.382408710084E-10 5.210000000000E+02 2.035000000000E+03 0.000000000000E+00
     3.120000000000E+00 0.000000000000E+00-8.149072527885E-09-9.080395102501E-09
     1.690150000000E+05 0.000000000000E+00 0.000000000000E+00 0.000000000000E+00
E18 2019 01 07 22 40 00 5.623171455227E-03-2.843592028512E-11 0.000000000000E+00
     2.400000000000E+01 3.234375000000E+01 3.314780931074E-09 6.614670422202E-01
    -4.637986421585E-07 1.664101318456E-01 2.807006239891E-06 5.289345125198E+03
     1.680000000000E+05 2.603977918625E-06-1.445364930462E+00-6.407499313354E-06
     8.817637766806E-01 2.773125000000E+02 1.439034804936E+00-4.359467303597E-09
     1.277910372954E-09 2.580000000000E+02 2.035000000000E+03 0.000000000000E+00
     3.120000000000E+00 5.600000000000E+01 1.420266926289E-08 0.000000000000E+00
     1.690500000000E+05 0.000000000000E+00 0.000000000000E+00 0.000000000000E+00
E18 2019 01 07 22 40 00 5.623173492495E-03-2.843592028512E-11 0.000000000000E+00
     2.400000000000E+01 3.234375000000E+01 3.314780931074E-09 6.614670422202E-01
    -4.637986421585E-07 1.664101318456E-01 2.807006239891E-06 5.289345125198E+03
     1.680000000000E+05 2.603977918625E-06-1.445364930462E+00-6.407499313354E-06
     8.817637766806E-01 2.773125000000E+02 1.439034804936E+00-4.359467303597E-09
     1.277910372954E-09 5.210000000000E+02 2.035000000000E+03 0.000000000000E+00
     3.120000000000E+00 4.550000000000E+02 1.420266926289E-08 1.583248376846E-08
     1.690750000000E+05 0.000000000000E+00 0.000000000000E+00 0.000000000000E+00
